GLOBALSTAR M035         
1 25851U 99037A   25237.46521513 -.00000045  00000+0  68986-3 0  9994
2 25851  51.9922 260.4725 0013451  94.1967  51.2429 11.04539607103910
GLOBALSTAR M032         
1 25852U 99037B   25237.28979089 -.00000032  00000+0  11196-2 0  9996
2 25852  51.9949  81.2905 0011713 284.6238  75.3263 11.19062629142529
GLOBALSTAR M051         
1 25853U 99037C   25237.36470582 -.00000080  00000+0 -18659-3 0  9996
2 25853  51.9758 234.0105 0000620 341.8530  18.2258 11.42205359140291
GLOBALSTAR M030         
1 25854U 99037D   25237.57112651 -.00000077  00000+0 -49037-4 0  9991
2 25854  51.9899  35.2039 0003401 158.3503 201.7458 11.55113370158066
GLOBALSTAR M048         
1 25872U 99041A   25237.33979256 -.00000070  00000+0  33238-5 0  9991
2 25872  51.9353 171.7770 0013569 306.8299 197.7733 11.33858524132826
GLOBALSTAR M026         
1 25873U 99041B   25237.60919642 -.00000061  00000+0  10789-3 0  9999
2 25873  52.0048  17.3742 0001986  47.9146  59.4054 11.06849598156173
GLOBALSTAR M043         
1 25874U 99041C   25237.44997817 -.00000024  00000+0  13105-2 0  9995
2 25874  51.9392 281.9243 0013445  71.1997  32.3551 11.25695572130676
GLOBALSTAR M028         
1 25875U 99041D   25237.60693341 -.00000067  00000+0  21489-3 0  9991
2 25875  51.9654 346.0675 0063116 221.6033 138.0016 12.50586164198863
